[{"OBJECT_NAME":"TIGRISAT","OBJECT_ID":"2014-033AK","EPOCH":"2026-03-28T09:24:41.929344","MEAN_MOTION":14.84814543,"ECCENTRICITY":0.00489292,"INCLINATION":97.7705,"RA_OF_ASC_NODE":239.3229,"ARG_OF_PERICENTER":341.1865,"MEAN_ANOMALY":18.754,"EPHEMERIS_TYPE":0,"CLASSIFICATION_TYPE":"U","NORAD_CAT_ID":40043,"ELEMENT_SET_NO":999,"REV_AT_EPOCH":63363,"BSTAR":0.00025716055,"MEAN_MOTION_DOT":2.175e-5,"MEAN_MOTION_DDOT":0},{"OBJECT_NAME":"AEROCUBE 6A","OBJECT_ID":"2014-033AM","EPOCH":"2026-03-28T10:42:31.811328","MEAN_MOTION":14.97098132,"ECCENTRICITY":0.00383706,"INCLINATION":97.7149,"RA_OF_ASC_NODE":255.3405,"ARG_OF_PERICENTER":285.9545,"MEAN_ANOMALY":73.7451,"EPHEMERIS_TYPE":0,"CLASSIFICATION_TYPE":"U","NORAD_CAT_ID":40045,"ELEMENT_SET_NO":999,"REV_AT_EPOCH":63453,"BSTAR":0.00060779497,"MEAN_MOTION_DOT":7.06e-5,"MEAN_MOTION_DDOT":0},{"OBJECT_NAME":"AEROCUBE 6B","OBJECT_ID":"2014-033AN","EPOCH":"2026-03-28T11:00:41.812128","MEAN_MOTION":14.98491911,"ECCENTRICITY":0.0036998,"INCLINATION":97.7123,"RA_OF_ASC_NODE":254.9807,"ARG_OF_PERICENTER":276.3188,"MEAN_ANOMALY":83.3821,"EPHEMERIS_TYPE":0,"CLASSIFICATION_TYPE":"U","NORAD_CAT_ID":40046,"ELEMENT_SET_NO":999,"REV_AT_EPOCH":63466,"BSTAR":0.00066434,"MEAN_MOTION_DOT":8.0e-5,"MEAN_MOTION_DDOT":0},{"OBJECT_NAME":"CANX-4","OBJECT_ID":"2014-034C","EPOCH":"2026-03-28T13:26:12.952896","MEAN_MOTION":14.81107521,"ECCENTRICITY":0.00115292,"INCLINATION":98.3244,"RA_OF_ASC_NODE":319.8685,"ARG_OF_PERICENTER":270.8657,"MEAN_ANOMALY":89.1233,"EPHEMERIS_TYPE":0,"CLASSIFICATION_TYPE":"U","NORAD_CAT_ID":40055,"ELEMENT_SET_NO":999,"REV_AT_EPOCH":63259,"BSTAR":0.00015042383,"MEAN_MOTION_DOT":1.112e-5,"MEAN_MOTION_DDOT":0},{"OBJECT_NAME":"CANX-5","OBJECT_ID":"2014-034D","EPOCH":"2026-03-28T13:25:17.600736","MEAN_MOTION":14.81124343,"ECCENTRICITY":0.00115325,"INCLINATION":98.3246,"RA_OF_ASC_NODE":319.9066,"ARG_OF_PERICENTER":271.132,"MEAN_ANOMALY":88.857,"EPHEMERIS_TYPE":0,"CLASSIFICATION_TYPE":"U","NORAD_CAT_ID":40056,"ELEMENT_SET_NO":999,"REV_AT_EPOCH":62340,"BSTAR":0.00015041001,"MEAN_MOTION_DOT":1.112e-5,"MEAN_MOTION_DDOT":0},{"OBJECT_NAME":"UKUBE-1","OBJECT_ID":"2014-037F","EPOCH":"2026-03-28T13:04:04.436256","MEAN_MOTION":15.12183456,"ECCENTRICITY":0.00031895,"INCLINATION":98.4237,"RA_OF_ASC_NODE":82.4331,"ARG_OF_PERICENTER":83.0903,"MEAN_ANOMALY":277.0688,"EPHEMERIS_TYPE":0,"CLASSIFICATION_TYPE":"U","NORAD_CAT_ID":40074,"ELEMENT_SET_NO":999,"REV_AT_EPOCH":63636,"BSTAR":0.00068442741,"MEAN_MOTION_DOT":0.00011747,"MEAN_MOTION_DDOT":0},{"OBJECT_NAME":"BRITE-PL2 (HEWELIUSZ)","OBJECT_ID":"2014-049B","EPOCH":"2026-03-28T06:56:50.060256","MEAN_MOTION":14.94273158,"ECCENTRICITY":0.0014408,"INCLINATION":97.8992,"RA_OF_ASC_NODE":198.7296,"ARG_OF_PERICENTER":23.015,"MEAN_ANOMALY":337.1713,"EPHEMERIS_TYPE":0,"CLASSIFICATION_TYPE":"U","NORAD_CAT_ID":40119,"ELEMENT_SET_NO":999,"REV_AT_EPOCH":62936,"BSTAR":0.00019683,"MEAN_MOTION_DOT":2.057e-5,"MEAN_MOTION_DDOT":0},{"OBJECT_NAME":"AEROCUBE 5C","OBJECT_ID":"2015-058B","EPOCH":"2026-03-28T13:27:06.812064","MEAN_MOTION":14.90984143,"ECCENTRICITY":0.01298776,"INCLINATION":64.7672,"RA_OF_ASC_NODE":153.324,"ARG_OF_PERICENTER":94.9712,"MEAN_ANOMALY":266.6241,"EPHEMERIS_TYPE":0,"CLASSIFICATION_TYPE":"U","NORAD_CAT_ID":40965,"ELEMENT_SET_NO":999,"REV_AT_EPOCH":35363,"BSTAR":0.0002258424,"MEAN_MOTION_DOT":2.451e-5,"MEAN_MOTION_DDOT":0},{"OBJECT_NAME":"AEROCUBE 7","OBJECT_ID":"2015-058C","EPOCH":"2026-03-28T13:57:30.855168","MEAN_MOTION":14.95060119,"ECCENTRICITY":0.01197856,"INCLINATION":64.7619,"RA_OF_ASC_NODE":137.1625,"ARG_OF_PERICENTER":93.8926,"MEAN_ANOMALY":267.5892,"EPHEMERIS_TYPE":0,"CLASSIFICATION_TYPE":"U","NORAD_CAT_ID":40966,"ELEMENT_SET_NO":999,"REV_AT_EPOCH":35390,"BSTAR":0.00028603922,"MEAN_MOTION_DOT":3.445e-5,"MEAN_MOTION_DDOT":0},{"OBJECT_NAME":"FOX-1A (AO-85)","OBJECT_ID":"2015-058D","EPOCH":"2026-03-28T13:57:18.937152","MEAN_MOTION":14.90487488,"ECCENTRICITY":0.01284338,"INCLINATION":64.7757,"RA_OF_ASC_NODE":169.3847,"ARG_OF_PERICENTER":88.3269,"MEAN_ANOMALY":273.2549,"EPHEMERIS_TYPE":0,"CLASSIFICATION_TYPE":"U","NORAD_CAT_ID":40967,"ELEMENT_SET_NO":999,"REV_AT_EPOCH":10155,"BSTAR":0.00024564544,"MEAN_MOTION_DOT":2.636e-5,"MEAN_MOTION_DDOT":0},{"OBJECT_NAME":"SINOD-D 1","OBJECT_ID":"2015-058E","EPOCH":"2026-03-28T13:39:12.708576","MEAN_MOTION":14.9522821,"ECCENTRICITY":0.01168484,"INCLINATION":64.7754,"RA_OF_ASC_NODE":151.2454,"ARG_OF_PERICENTER":85.3967,"MEAN_ANOMALY":276.0483,"EPHEMERIS_TYPE":0,"CLASSIFICATION_TYPE":"U","NORAD_CAT_ID":40968,"ELEMENT_SET_NO":999,"REV_AT_EPOCH":10460,"BSTAR":0.00030174884,"MEAN_MOTION_DOT":3.636e-5,"MEAN_MOTION_DDOT":0},{"OBJECT_NAME":"SNAP-3 ALICE","OBJECT_ID":"2015-058G","EPOCH":"2026-03-28T05:12:54.657792","MEAN_MOTION":15.46391818,"ECCENTRICITY":0.00351882,"INCLINATION":64.7567,"RA_OF_ASC_NODE":20.7364,"ARG_OF_PERICENTER":62.1891,"MEAN_ANOMALY":298.2808,"EPHEMERIS_TYPE":0,"CLASSIFICATION_TYPE":"U","NORAD_CAT_ID":40970,"ELEMENT_SET_NO":999,"REV_AT_EPOCH":10431,"BSTAR":0.0016645491,"MEAN_MOTION_DOT":0.00085482,"MEAN_MOTION_DDOT":0},{"OBJECT_NAME":"LMRST-SAT","OBJECT_ID":"2015-058H","EPOCH":"2026-03-28T14:00:30.131712","MEAN_MOTION":14.90118341,"ECCENTRICITY":0.01304586,"INCLINATION":64.7761,"RA_OF_ASC_NODE":165.566,"ARG_OF_PERICENTER":90.3193,"MEAN_ANOMALY":271.2868,"EPHEMERIS_TYPE":0,"CLASSIFICATION_TYPE":"U","NORAD_CAT_ID":40971,"ELEMENT_SET_NO":999,"REV_AT_EPOCH":10154,"BSTAR":0.00024350261,"MEAN_MOTION_DOT":2.598e-5,"MEAN_MOTION_DDOT":0},{"OBJECT_NAME":"SNAP-3 EDDIE","OBJECT_ID":"2015-058J","EPOCH":"2026-03-28T03:17:21.199488","MEAN_MOTION":15.4744038,"ECCENTRICITY":0.0036201,"INCLINATION":64.7496,"RA_OF_ASC_NODE":12.2848,"ARG_OF_PERICENTER":67.2712,"MEAN_ANOMALY":293.2247,"EPHEMERIS_TYPE":0,"CLASSIFICATION_TYPE":"U","NORAD_CAT_ID":40972,"ELEMENT_SET_NO":999,"REV_AT_EPOCH":10643,"BSTAR":0.0015838,"MEAN_MOTION_DOT":0.00084463,"MEAN_MOTION_DDOT":0},{"OBJECT_NAME":"PROPCUBE 3","OBJECT_ID":"2015-058K","EPOCH":"2026-03-28T13:07:14.035008","MEAN_MOTION":14.93676215,"ECCENTRICITY":0.01228493,"INCLINATION":64.7681,"RA_OF_ASC_NODE":144.3741,"ARG_OF_PERICENTER":92.0029,"MEAN_ANOMALY":269.5159,"EPHEMERIS_TYPE":0,"CLASSIFICATION_TYPE":"U","NORAD_CAT_ID":40973,"ELEMENT_SET_NO":999,"REV_AT_EPOCH":10275,"BSTAR":0.0002542115,"MEAN_MOTION_DOT":2.947e-5,"MEAN_MOTION_DDOT":0},{"OBJECT_NAME":"BISONSAT","OBJECT_ID":"2015-058L","EPOCH":"2026-03-28T09:13:18.742944","MEAN_MOTION":15.14237853,"ECCENTRICITY":0.00786594,"INCLINATION":64.7591,"RA_OF_ASC_NODE":74.5218,"ARG_OF_PERICENTER":82.6957,"MEAN_ANOMALY":278.3098,"EPHEMERIS_TYPE":0,"CLASSIFICATION_TYPE":"U","NORAD_CAT_ID":40974,"ELEMENT_SET_NO":999,"REV_AT_EPOCH":10337,"BSTAR":0.00077713328,"MEAN_MOTION_DOT":0.00015239,"MEAN_MOTION_DDOT":0},{"OBJECT_NAME":"SNAP-3 JIMI","OBJECT_ID":"2015-058M","EPOCH":"2026-03-28T11:36:41.114880","MEAN_MOTION":15.01348638,"ECCENTRICITY":0.0104929,"INCLINATION":64.764,"RA_OF_ASC_NODE":114.9357,"ARG_OF_PERICENTER":88.5567,"MEAN_ANOMALY":272.7568,"EPHEMERIS_TYPE":0,"CLASSIFICATION_TYPE":"U","NORAD_CAT_ID":40975,"ELEMENT_SET_NO":999,"REV_AT_EPOCH":10210,"BSTAR":0.00037192,"MEAN_MOTION_DOT":5.225e-5,"MEAN_MOTION_DDOT":0}]
