TIGRISAT                
1 40043U 14033AK  26087.39215196  .00002175  00000+0  25716-3 0  9999
2 40043  97.7705 239.3229 0048929 341.1865  18.7540 14.84814543633636
AEROCUBE 6A             
1 40045U 14033AM  26087.44620152  .00007060  00000+0  60779-3 0  9995
2 40045  97.7149 255.3405 0038370 285.9545  73.7451 14.97098132634537
AEROCUBE 6B             
1 40046U 14033AN  26087.45881727  .00008000  00000+0  66434-3 0  9993
2 40046  97.7123 254.9807 0036998 276.3188  83.3821 14.98491911634667
CANX-4                  
1 40055U 14034C   26087.55987214  .00001112  00000+0  15042-3 0  9999
2 40055  98.3244 319.8685 0011529 270.8657  89.1233 14.81107521632590
CANX-5                  
1 40056U 14034D   26087.55923149  .00001112  00000+0  15041-3 0  9996
2 40056  98.3246 319.9066 0011532 271.1320  88.8570 14.81124343623403
UKUBE-1                 
1 40074U 14037F   26087.54449579  .00011747  00000+0  68443-3 0  9997
2 40074  98.4237  82.4331 0003189  83.0903 277.0688 15.12183456636363
BRITE-PL2 (HEWELIUSZ)   
1 40119U 14049B   26087.28946829  .00002057  00000+0  19683-3 0  9997
2 40119  97.8992 198.7296 0014408  23.0150 337.1713 14.94273158629366
AEROCUBE 5C             
1 40965U 15058B   26087.56049551  .00002451  00000+0  22584-3 0  9996
2 40965  64.7672 153.3240 0129877  94.9712 266.6241 14.90984143353632
AEROCUBE 7              
1 40966U 15058C   26087.58160712  .00003445  00000+0  28604-3 0  9995
2 40966  64.7619 137.1625 0119785  93.8926 267.5892 14.95060119353908
FOX-1A (AO-85)          
1 40967U 15058D   26087.58146918  .00002636  00000+0  24565-3 0  9991
2 40967  64.7757 169.3847 0128433  88.3269 273.2549 14.90487488101556
SINOD-D 1               
1 40968U 15058E   26087.56889709  .00003636  00000+0  30175-3 0  9997
2 40968  64.7754 151.2454 0116848  85.3967 276.0483 14.95228210104605
SNAP-3 ALICE            
1 40970U 15058G   26087.21729928  .00085482  00000+0  16645-2 0  9992
2 40970  64.7567  20.7364 0035188  62.1891 298.2808 15.46391818104313
LMRST-SAT               
1 40971U 15058H   26087.58368208  .00002598  00000+0  24350-3 0  9993
2 40971  64.7761 165.5660 0130458  90.3193 271.2868 14.90118341101546
SNAP-3 EDDIE            
1 40972U 15058J   26087.13705092  .00084463  00000+0  15838-2 0  9992
2 40972  64.7496  12.2848 0036201  67.2712 293.2247 15.47440380106431
PROPCUBE 3              
1 40973U 15058K   26087.54669022  .00002947  00000+0  25421-3 0  9997
2 40973  64.7681 144.3741 0122849  92.0029 269.5159 14.93676215102755
BISONSAT                
1 40974U 15058L   26087.38424471  .00015239  00000+0  77713-3 0  9996
2 40974  64.7591  74.5218 0078659  82.6957 278.3098 15.14237853103377
SNAP-3 JIMI             
1 40975U 15058M   26087.48380920  .00005225  00000+0  37192-3 0  9999
2 40975  64.7640 114.9357 0104929  88.5567 272.7568 15.01348638102108
